STARLINK-11072 [DTC]
1 58705U 24002A   26090.50438306  .00001936  00000+0  20858-4 0  9994
2 58705  53.1588 166.4732 0001286  34.6405 325.4696 15.69685564129861
STARLINK-11075 [DTC]
1 58706U 24002B   26089.93625153 -.00001135  00000+0 -45108-5 0  9997
2 58706  53.1597 169.3419 0001264  83.4654 276.6507 15.69703412129771
STARLINK-11077 [DTC]
1 58707U 24002C   26090.19583750  .00003282  00000+0  31934-4 0  9998
2 58707  53.1588 168.0989 0000705  72.5021 287.6074 15.69708551129811
STARLINK-11079 [DTC]
1 58708U 24002D   26090.49947364  .00000308  00000+0  74057-5 0  9997
2 58708  53.1594 166.4422 0001464  56.3813 303.7345 15.69697736129863
STARLINK-11076 [DTC]
1 58709U 24002E   26090.49456756 -.00001284  00000+0 -57481-5 0  9996
2 58709  53.1585 166.4154 0001071  76.2183 283.8954 15.69699287129868
STARLINK-11078 [DTC]
1 58710U 24002F   26090.48967405 -.00001752  00000+0 -96177-5 0  9990
2 58710  53.1596 166.3790 0001227 100.0265 260.0891 15.69682947129869
STARLINK-11087 [DTC]
1 59421U 24065A   26090.41622147  .00002324  00000+0  24047-4 0  9993
2 59421  53.1589 346.9150 0001313  88.1603 271.9565 15.69702886114920
STARLINK-11090 [DTC]
1 59422U 24065B   26089.95580880 -.00000514  00000+0  61287-6 0  9997
2 59422  53.1584 349.0152 0001037  95.8114 264.3022 15.69710966114873
STARLINK-11093 [DTC]
1 59423U 24065C   26090.40640712  .00004701  00000+0  43635-4 0  9997
2 59423  53.1584 346.8501 0001003 101.1850 258.9281 15.69709657114936
STARLINK-11083 [DTC]
1 59424U 24065D   26090.41131769  .00003373  00000+0  32703-4 0  9994
2 59424  53.1582 346.8826 0001593  93.8891 266.2310 15.69703188114883
STARLINK-11085 [DTC]
1 59425U 24065E   26090.14193716 -.00007884  00000+0 -60368-4 0  9996
2 59425  53.1582 348.0407 0001104  58.7817 301.3309 15.69673244114843
STARLINK-11089 [DTC]
1 59426U 24065F   26089.97543812 -.00002789  00000+0 -18184-4 0  9990
2 59426  53.1580 349.1600 0000827  41.5128 318.5952 15.69695552114867
STARLINK-11107 [DTC]
1 59708U 24088A   26090.38246372  .00003956  00000+0  37489-4 0  9990
2 59708  53.1584 219.0229 0001031  50.5841 309.5268 15.69715583109665
STARLINK-11088 [DTC]
1 59709U 24088B   26090.75478398 -.00058075  00000+0 -47934-3 0  9996
2 59709  53.1580 217.8045 0002053  98.0277 262.0974 15.69631644109739
STARLINK-11092 [DTC]
1 59710U 24088C   26090.43153311 -.00001498  00000+0 -75188-5 0  9999
2 59710  53.1597 219.3384 0001008 100.1090 260.0041 15.69685074109682
STARLINK-11082 [DTC]
1 59711U 24088D   26090.61764326 -.00003007  00000+0 -19981-4 0  9990
2 59711  53.1592 218.3654 0002062 113.0324 247.0912 15.69680347109715
STARLINK-11108 [DTC]
1 59712U 24088E   26090.35805250 -.00000870  00000+0 -23173-5 0  9998
2 59712  53.1601 219.5916 0001465   7.6369 352.4671 15.69692989109677
STARLINK-11100 [DTC]
1 59713U 24088F   26090.35312918  .00006691  00000+0  60004-4 0  9991
2 59713  53.1578 219.5570 0000870  75.6710 284.4405 15.69722372109670
STARLINK-11094 [DTC]
1 59714U 24088G   26090.09355565  .00005077  00000+0  46741-4 0  9997
2 59714  53.1591 220.7859 0001320 101.1489 258.9677 15.69707683109630
STARLINK-11101 [DTC]
1 59715U 24088H   26090.08374278 -.00000298  00000+0  23999-5 0  9991
2 59715  53.1585 220.7094 0001296  97.2636 262.8529 15.69703990109633
STARLINK-11099 [DTC]
1 59716U 24088J   26090.34331779  .00002345  00000+0  24202-4 0  9991
2 59716  53.1580 219.4897 0000592  83.2076 276.9010 15.69713809109671
STARLINK-11084 [DTC]
1 59717U 24088K   26090.77920212 -.00000250  00000+0  27934-5 0  9995
2 59717  53.1585 217.2270 0000843  90.0726 270.0389 15.69705016109748
STARLINK-11103 [DTC]
1 59718U 24088L   26090.77428537  .00002483  00000+0  25349-4 0  9995
2 59718  53.1596 217.1942 0001479  73.9225 286.1956 15.69711854109741
STARLINK-11096 [DTC]
1 59719U 24088M   26090.75969344 -.00002235  00000+0 -13605-4 0  9999
2 59719  53.1603 217.8315 0001135  94.2363 265.8784 15.69689661109732
STARLINK-11095 [DTC]
1 59720U 24088N   26090.76939337  .00000943  00000+0  12646-4 0  9997
2 59720  53.1597 217.1636 0001140  60.4792 299.6340 15.69698657109741
STARLINK-11118 [DTC]
1 59754U 24091B   26090.74986901  .00002142  00000+0  22532-4 0  9993
2 59754  53.1593  97.8481 0001360  88.3070 271.8103 15.69720000108978
STARLINK-11132 [DTC]
1 59755U 24091C   26090.74007066 -.00000416  00000+0  14243-5 0  9994
2 59755  53.1570  97.7811 0001270  89.4514 270.6649 15.69701311108971
STARLINK-11131 [DTC]
1 59756U 24091D   26090.73517059 -.00001166  00000+0 -47712-5 0  9993
2 59756  53.1593  97.7513 0001330  94.1887 265.9283 15.69696243108977
STARLINK-11114 [DTC]
1 59757U 24091E   26090.41191148 -.00000113  00000+0  39257-5 0  9991
2 59757  53.1582  99.3037 0001039  95.6071 264.5065 15.69705959108925
STARLINK-11105 [DTC]
1 59758U 24091F   26090.72535964 -.00000042  00000+0  45165-5 0  9990
2 59758  53.1599  97.7015 0001162  93.3637 266.7514 15.69700846108970
STARLINK-11097 [DTC]
1 59759U 24091G   26090.27475289  .00000532  00000+0  92429-5 0  9992
2 59759  53.1587  99.8462 0000685 110.3749 249.7342 15.69709924108909
STARLINK-11098 [DTC]
1 59760U 24091H   26090.71553017  .00000884  00000+0  12153-4 0  9994
2 59760  53.1572  97.6151 0001298  93.9917 266.1250 15.69724970108976
STARLINK-11117 [DTC]
1 59761U 24091J   26090.83797470 -.00000205  00000+0  31713-5 0  9993
2 59761  53.1567  96.9578 0001428 108.8611 251.2562 15.69705718108990
STARLINK-11110 [DTC]
1 59762U 24091K   26090.32370648  .00000166  00000+0  62296-5 0  9997
2 59762  53.1584  99.4320 0001408 145.8784 214.2325 15.69705136108915
STARLINK-11104 [DTC]
1 59763U 24091L   26090.44614995  .00001519  00000+0  17402-4 0  9998
2 59763  53.1590  98.7730 0001035  83.4283 276.6853 15.69694355108937
STARLINK-11111 [DTC]
1 59764U 24091M   26090.30900675  .00000483  00000+0  88494-5 0  9996
2 59764  53.1595  99.3365 0001165  86.5393 273.5758 15.69692061108914
STARLINK-11106 [DTC]
1 59765U 24091N   26090.31389614  .00003471  00000+0  33505-4 0  9994
2 59765  53.1590  99.3679 0001740  80.7139 279.4076 15.69710447108918
STARLINK-11145 [DTC]
1 59945U 24107A   26090.85885700 -.00000304  00000+0  23497-5 0  9991
2 59945  53.1588 142.2903 0001239 116.7767 243.3378 15.69698793105622
STARLINK-11113 [DTC]
1 59947U 24107C   26090.86366300 -.00003763  00000+0 -26254-4 0  9990
2 59947  53.1594 141.5745 0000674  96.9061 263.2033 15.69684876105632
STARLINK-11123 [DTC]
1 59948U 24107D   26090.33967813  .00000741  00000+0  10971-4 0  9999
2 59948  53.1576 144.7354 0001081  82.4223 277.6918 15.69720149105609
STARLINK-11138 [DTC]
1 59949U 24107E   26090.32005133  .00009423  00000+0  82511-4 0  9992
2 59949  53.1585 144.6005 0000745 100.1387 259.9715 15.69719792105607
STARLINK-11130 [DTC]
1 59950U 24107F   26090.52579252  .00000113  00000+0  57930-5 0  9999
2 59950  53.1591 143.7617 0001140  91.6320 268.4829 15.69700043105572
STARLINK-11124 [DTC]
1 59952U 24107H   26090.51597908 -.00002452  00000+0 -15396-4 0  9997
2 59952  53.1581 143.6960 0001080  59.1514 300.9610 15.69695831105646
STARLINK-11133 [DTC]
1 59954U 24107K   26090.56493469 -.00000554  00000+0  28823-6 0  9992
2 59954  53.1581 143.2826 0001205  56.6826 303.4307 15.69699820105588
STARLINK-11144 [DTC]
1 59955U 24107L   26090.43270206 -.00001811  00000+0 -10103-4 0  9999
2 59955  53.1594 143.8848 0001210  28.4785 331.6299 15.69686295105620
STARLINK-11134 [DTC]
1 59956U 24107M   26090.55511943 -.00000521  00000+0  56117-6 0  9992
2 59956  53.1600 143.2200 0001342 107.5832 252.5333 15.69700189105510
STARLINK-11142 [DTC]
1 59957U 24107N   26090.86856443 -.00000617  00000+0 -23510-6 0  9992
2 59957  53.1579 141.6166 0001422  94.6602 265.4578 15.69699030105649
STARLINK-11129 [DTC]
1 60038U 24112A   26089.49119714 -.00001832  00000+0 -10265-4 0  9991
2 60038  53.1599 164.0533 0001485  82.9643 277.1544 15.69694067104247
STARLINK-11140 [DTC]
1 60039U 24112B   26090.56866445 -.00004409  00000+0 -31569-4 0  9995
2 60039  53.1589 158.6866 0001195  87.9080 272.2074 15.69694704104414
STARLINK-11122 [DTC]
1 60040U 24112C   26090.56375866 -.00000547  00000+0  34079-6 0  9998
2 60040  53.1583 158.6537 0000916  97.2052 262.9070 15.69700740104418
STARLINK-11149 [DTC]
1 60041U 24112D   26090.87719425 -.00000014  00000+0  47405-5 0  9991
2 60041  53.1601 157.0506 0000932 143.3171 216.7910 15.69708217104464
STARLINK-11120 [DTC]
1 60042U 24112E   26090.36293137 -.00000863  00000+0 -22768-5 0  9991
2 60042  53.1593 159.5293 0000409  82.2622 277.8442 15.69709273104388
STARLINK-11086 [DTC]
1 60043U 24112F   26090.48536349 -.00000485  00000+0  85529-6 0  9994
2 60043  53.1592 158.8697 0001322  60.8881 299.2270 15.69721556104400
STARLINK-11148 [DTC]
1 60044U 24112G   26090.35312468  .00000687  00000+0  10531-4 0  9997
2 60044  53.1579 159.4638 0000965 102.0066 258.1060 15.69696880104383
STARLINK-11116 [DTC]
1 60045U 24112H   26090.47556742 -.00001944  00000+0 -11207-4 0  9996
2 60045  53.1577 158.8048 0000985  93.6019 266.5111 15.69687867104403
STARLINK-11155 [DTC]
1 60046U 24112J   26090.34333263 -.00000251  00000+0  27829-5 0  9991
2 60046  53.1589 159.3988 0000985  76.2259 283.8869 15.69675251104382
STARLINK-11163 [DTC]
1 60047U 24112K   26090.46576139 -.00001946  00000+0 -11227-4 0  9993
2 60047  53.1608 158.7384 0000854 101.7600 258.3514 15.69684982104405
STARLINK-11135 [DTC]
1 60048U 24112L   26090.45103053 -.00000893  00000+0 -25219-5 0  9991
2 60048  53.1599 158.6592 0000578  23.3350 336.7694 15.69711218104402
STARLINK-11151 [DTC]
1 60049U 24112M   26090.46085874 -.00003211  00000+0 -21681-4 0  9998
2 60049  53.1602 158.7056 0000979 110.4625 249.6498 15.69681911104402
STARLINK-11137 [DTC]
1 60050U 24112N   26090.45593293  .00009049  00000+0  79407-4 0  9990
2 60050  53.1587 158.6736 0000544 138.7266 221.3794 15.69727599104401
STARLINK-11181 [DTC]
1 60059U 24113A   26090.68250463  .00003301  00000+0  32098-4 0  9994
2 60059  53.1561  82.9277 0001191  90.7703 269.3451 15.69704656103010
STARLINK-11176 [DTC]
1 60060U 24113B   26090.67759752  .00014637  00000+0  12545-3 0  9998
2 60060  53.1566  82.8951 0001026 101.6075 258.5058 15.69710526103012
